ASIASAT 5               
1 35696U 09042A   25348.00831934 -.00000290  00000+0  00000+0 0  9994
2 35696   0.0123  47.7477 0001466 207.1592 291.5497  1.00270718 59856
JCSAT-12 (JCSAT-RA)     
1 35755U 09044A   25348.15712273 -.00000310  00000+0  00000+0 0  9995
2 35755   0.0254  63.6095 0001943 206.8498   1.2354  1.00269912 59752
OPTUS D3                
1 35756U 09044B   25348.23338987 -.00000128  00000+0  00000+0 0  9998
2 35756   0.8624 270.5002 0003103  19.0304  33.7880  1.00269760 59710
NIMIQ 5                 
1 35873U 09050A   25348.25939002 -.00000239  00000+0  00000+0 0  9995
2 35873   0.0184   9.3288 0002785 257.9122 196.6337  1.00271934 59490
AMAZONAS 2              
1 35942U 09054A   25348.26173005 -.00000265  00000+0  00000+0 0  9999
2 35942   1.3365  85.5842 0003397 180.8216 210.2089  1.00270799 59330
COMSATBW-1              
1 35943U 09054B   25348.19350067  .00000042  00000+0  00000+0 0  9999
2 35943   0.0220 326.3385 0002973 309.6622 299.8034  1.00269903 59446
NSS-12                  
1 36032U 09058A   25348.19350067  .00000089  00000+0  00000+0 0  9994
2 36032   0.0943  73.4160 0004651 190.1494 306.2130  1.00272455 59068
THOR 6                  
1 36033U 09058B   25348.27351679  .00000000  00000+0  00000+0 0  9997
2 36033   0.0111 351.0009 0001682 288.6598 261.1421  1.00269676 59155
INTELSAT 14 (IS-14)     
1 36097U 09064A   25348.26485007 -.00000256  00000+0  00000+0 0  9990
2 36097   0.0198  43.4129 0002432 227.4231 222.7023  1.00271838 58753
EUTELSAT 36B            
1 36101U 09065A   25348.21241641  .00000129  00000+0  00000+0 0  9994
2 36101   0.0425  19.3299 0006225 244.3637 306.4364  1.00274914 58851
INTELSAT 15 (IS-15)     
1 36106U 09067A   25348.29050356 -.00000167  00000+0  00000+0 0  9993
2 36106   0.0155 302.0775 0002259 329.7584   1.1112  1.00272146 39370
WGS F3 (USA 211)        
1 36108U 09068A   25348.14663601 -.00000102  00000+0  00000+0 0  9992
2 36108   0.2461  86.8048 0000206 131.1900 356.0689  1.00274902 44741
DIRECTV 12              
1 36131U 09075A   25348.32336463 -.00000085  00000+0  00000+0 0  9999
2 36131   0.0283 147.4937 0000841 218.9311  90.5104  1.00268076 44706
BEIDOU-2 G1             
1 36287U 10001A   25347.94496561 -.00000266  00000+0  00000+0 0  9996
2 36287   3.8608  60.8094 0004333 253.6656 249.0134  1.00268551 58314
SDO                     
1 36395U 10005A   25347.27995576 -.00000068  00000+0  00000+0 0  9996
2 36395  34.2630  89.1775 0001064 141.1302 210.7149  1.00270164 58194
INTELSAT 16 (IS-16)     
1 36397U 10006A   25348.25869669 -.00000227  00000+0  00000+0 0  9998
2 36397   0.0087 325.1292 0001988 301.2210 193.7661  1.00271828 57806
EWS-G2 (GOES 15)        
1 36411U 10008A   25348.19350067  .00000055  00000+0  00000+0 0  9995
2 36411   0.8177  86.0671 0005646 175.4906 312.6146  1.00270204 57787
ECHOSTAR 14             
1 36499U 10010A   25348.25020330  .00000018  00000+0  00000+0 0  9997
2 36499   0.0024 356.3890 0001852 269.4910 148.4664  1.00271048 44699
SES-1                   
1 36516U 10016A   25348.25375666 -.00000097  00000+0  00000+0 0  9996
2 36516   0.0223 310.6564 0002726 324.3387 158.5326  1.00271942 57178
ASTRA 3B                
1 36581U 10021A   25348.27837016  .00000155  00000+0  00000+0 0  9992
2 36581   0.9903  86.0163 0002090 178.7405 302.1806  1.00273943 57015
COMSATBW-2              
1 36582U 10021B   25348.20504970  .00000106  00000+0  00000+0 0  9992
2 36582   0.0823  78.6906 0003425 201.1059 250.3490  1.00273734 57100
BEIDOU-2 G3             
1 36590U 10024A   25347.86156514 -.00000121  00000+0  00000+0 0  9990
2 36590   4.0773  62.1797 0004622 309.7693 100.6321  1.00273044 56914
BADR-5                  
1 36592U 10025A   25348.21016828  .00000162  00000+0  00000+0 0  9990
2 36592   0.0523 126.5037 0002953  86.8872 331.4105  1.00268608 51362
COMS 1                  
1 36744U 10032A   25348.22784317 -.00000328  00000+0  00000+0 0  9998
2 36744   4.3447  77.9820 0000845 188.3791  26.9801  1.00272291 49233
ARABSAT-5A              
1 36745U 10032B   25348.27984351  .00000171  00000+0  00000+0 0  9999
2 36745   0.0793  50.8038 0003289 212.9527 310.6787  1.00272977 56794
ECHOSTAR 15             
1 36792U 10034A   25348.25020330  .00000017  00000+0  00000+0 0  9998
2 36792   0.0096 326.1901 0002240 268.6214 179.6318  1.00270669 56460
BEIDOU-2 IGSO-1         
1 36828U 10036A   25347.91274929 -.00000029  00000+0  00000+0 0  9991
2 36828  54.2867 164.6367 0051246 215.8478 138.8413  1.00275899 56232
NILESAT 201             
1 36830U 10037A   25348.27239012 -.00000039  00000+0  00000+0 0  9990
2 36830   0.0459 142.3882 0004529 106.8993 284.9903  1.00272975 56519
RASCOM-QAF 1R           
1 36831U 10037B   25348.27429679  .00000037  00000+0  00000+0 0  9998
2 36831   0.0340  86.8874 0007190 178.8237 279.1388  1.00272383 56458
AEHF-1 (USA 214)        
1 36868U 10039A   25347.92303881  .00000161  00000+0  00000+0 0  9995
2 36868   7.7653  70.4276 0004672 199.8219 174.9024  1.00266479 51801
XM-5                    
1 37185U 10053A   25348.25089664 -.00000005  00000+0  00000+0 0  9999
2 37185   0.0629 272.3981 0001609 230.4692 275.4367  1.00269020 55629
BSAT-3B                 
1 37207U 10056B   25348.29553027 -.00000332  00000+0  00000+0 0  9993
2 37207   0.0397 204.2067 0004302  47.1981  48.0577  1.00272413 50242
BEIDOU-2 G4             
1 37210U 10057A   25348.30549699 -.00000095  00000+0  00000+0 0  9996
2 37210   3.1887  69.9344 0010727 191.5622  91.7831  1.00271726 55432
SKYTERRA 1              
1 37218U 10061A   25348.25366999 -.00000103  00000+0  00000+0 0  9993
2 37218   4.7321  50.9112 0004642 180.5020 201.7469  1.00271991 55346
HYLAS 1                 
1 37237U 10065A   25348.25809002 -.00000219  00000+0  00000+0 0  9993
2 37237   5.1754  75.3095 0002661 218.5071 163.2752  1.00272403  5037
INTELSAT 17 (IS-17)     
1 37238U 10065B   25348.21553644  .00000016  00000+0  00000+0 0  9992
2 37238   0.0126 104.4782 0002624 175.6392 306.6155  1.00271798 51396
BEIDOU-2 IGSO-2         
1 37256U 10068A   25337.72402810 -.00000225  00000+0  00000+0 0  9990
2 37256  47.9042 274.2614 0049244 216.1411 310.2400  1.00288720 54834
EUTELSAT KA-SAT 9A      
1 37258U 10069A   25348.20418302  .00000080  00000+0  00000+0 0  9999
2 37258   0.0494 336.7621 0002053 211.6065 337.2907  1.00274983 42150
HISPASAT 30W-5          
1 37264U 10070A   25348.26779675 -.00000198  00000+0  00000+0 0  9998
2 37264   0.0412 147.3709 0002956  99.3699 262.8540  1.00272712 51330
KOREASAT 6              
1 37265U 10070B   25348.22225189 -.00000094  00000+0  00000+0 0  9996
2 37265   0.0181 355.9796 0002148 285.5946  41.4568  1.00272130 54916
BEIDOU-2 IGSO-3         
1 37384U 11013A   25347.58197669 -.00000197  00000+0  00000+0 0  9999
2 37384  62.1449  41.9072 0035419 187.5637 170.0888  1.00270696 53792
INTELSAT 28 (IS-28)     
1 37392U 11016A   25348.26745008 -.00000207  00000+0  00000+0 0  9995
2 37392   1.3286  85.0389 0003712 182.7746 239.9780  1.00272925 51436
YAHSAT 1A               
1 37393U 11016B   25348.21284975  .00000000  00000+0  00000+0 0  9992
2 37393   0.0185 343.0639 0002722 303.7055 285.4725  1.00269071 40558
SBIRS GEO-1 (USA 230)   
1 37481U 11019A   25348.23586462  .00000115  00000+0  00000+0 0  9998
2 37481   4.1301  52.9702 0002261 211.4760 315.4270  1.00271845 53548
TELSTAR 14R             
1 37602U 11021A   25348.18996959 -.00000262  00000+0  00000+0 0  9990
2 37602   0.0306 278.8287 0002058  35.4132 134.2750  1.00271849 53983
GSAT-8                  
1 37605U 11022A   25348.21336976  .00000102  00000+0  00000+0 0  9997
2 37605   1.6536  84.1806 0008689 183.7195 307.1281  1.00272393 51360
ST-2                    
1 37606U 11022B   25348.29111024 -.00000194  00000+0  00000+0 0  9993
2 37606   0.0191 319.9674 0001603 312.6532   3.4099  1.00272810 53426
ZHONGXING-10            
1 37677U 11026A   25348.57516188 -.00000145  00000+0  00000+0 0  9992
2 37677   0.5697  86.5457 0007418 170.4895 114.5965  1.00347702 53146
SES-3                   
1 37748U 11035A   25348.25332332 -.00000084  00000+0  00000+0 0  9995
2 37748   0.8494  85.1417 0003231 200.2734 145.9569  1.00271723 52738
KAZSAT-2                
1 37749U 11035B   25348.12544635 -.00000180  00000+0  00000+0 0  9990
2 37749   0.0295 236.3785 0001651  90.9505 247.3734  1.00269599 51549
BEIDOU-2 IGSO-4         
1 37763U 11038A   25344.50281816  .00000036  00000+0  00000+0 0  9995
2 37763  54.5829 167.3658 0149034 230.2355 317.2212  1.00284678 52751
ASTRA 1N                
1 37775U 11041A   25348.27759015  .00000137  00000+0  00000+0 0  9993
2 37775   0.0695  32.4088 0001557 268.9980 260.8657  1.00271365 42674
BSAT-3C (JCSAT-110R)    
1 37776U 11041B   25348.29553027 -.00000333  00000+0  00000+0 0  9990
2 37776   0.0205  36.1688 0000055  77.7907 185.6004  1.00273339 48620
PAKSAT-1R               
1 37779U 11042A   25348.20998973  .00000171  00000+0  00000+0 0  9997
2 37779   0.2110  86.2236 0001021 270.7349 199.8269  1.00277763 52624
SES-2                   
1 37809U 11049A   25348.25653001 -.00000178  00000+0  00000+0 0  9991
2 37809   0.0187  25.3093 0002425 238.4502 184.7698  1.00269711 52113
ARABSAT-5C              
1 37810U 11049B   25348.27776348  .00000141  00000+0  00000+0 0  9994
2 37810   0.0493   7.3217 0003945 238.9563 316.9181  1.00270325 52189
EUTELSAT 7 WEST A       
1 37816U 11051A   25348.27230345 -.00000042  00000+0  00000+0 0  9996
2 37816   0.0634 346.0578 0005486 241.6288 306.2288  1.00271694 52025
QUETZSAT 1              
1 37826U 11054A   25348.25852336 -.00000224  00000+0  00000+0 0  9990
2 37826   0.0114 350.1463 0002686 288.4479 180.6691  1.00272716 48021
INTELSAT 18 (IS-18)     
1 37834U 11056A   25348.23806990  .00000071  00000+0  00000+0 0  9993
2 37834   0.0185 326.9071 0001810 307.6852  74.2671  1.00272412 51956
